STARLINK-35671          
1 66392U 25257N   25334.58335648  .00042352  00000+0  76663-3 0  9992
2 66392  53.1594 321.9363 0001145  88.8443 335.1876 15.49263945  4542
STARLINK-35652          
1 66393U 25257P   25334.58335648  .00061650  00000+0  11097-2 0  9994
2 66393  53.1594 321.9399 0001647  87.6097 334.4898 15.49260523  4546
STARLINK-35672          
1 66394U 25257Q   25334.58335648  .00046344  00000+0  83779-3 0  9995
2 66394  53.1594 321.9313 0001549  87.8270 338.1244 15.49260713  4546
STARLINK-35681          
1 66395U 25257R   25334.58335648  .00038684  00000+0  70120-3 0  9990
2 66395  53.1594 321.9282 0001575  86.9427 340.9199 15.49266060  4388
STARLINK-35669          
1 66396U 25257S   25334.58335648  .00053300  00000+0  96147-3 0  9990
2 66396  53.1595 321.9234 0001482  87.3764 342.4003 15.49260630  4549
STARLINK-35510          
1 66397U 25257T   25334.58335648 -.00068514  00000+0 -12338-2 0  9995
2 66397  53.1594 321.9202 0000883  84.9401 346.7363 15.49327805  4543
STARLINK-35642          
1 66398U 25257U   25334.58335648  .00039499  00000+0  71573-3 0  9991
2 66398  53.1594 321.9154 0001488  84.5697 349.0455 15.49265822  4543
STARLINK-35657          
1 66399U 25257V   25334.58335648  .00067562  00000+0  12145-2 0  9993
2 66399  53.1595 321.9116 0001630  85.1279 350.4031 15.49256936  4547
STARLINK-35667          
1 66400U 25257W   25334.58335648  .00039817  00000+0  72198-3 0  9993
2 66400  53.1595 321.9033 0001544  80.6758 358.6692 15.49242949  4546
STARLINK-35668          
1 66401U 25257X   25334.58335648  .00068096  00000+0  12241-2 0  9997
2 66401  53.1594 321.8994 0001561  85.3579 355.9255 15.49254881  4546
STARLINK-35644          
1 66402U 25257Y   25334.58335648  .00074371  00000+0  13351-2 0  9994
2 66402  53.1595 321.9072 0001587  86.1305 351.3179 15.49254842  4542
STARLINK-35602          
1 66403U 25257Z   25334.58335648  .00063860  00000+0  11489-2 0  9996
2 66403  53.1594 321.8954 0001660  85.1703 358.0259 15.49259234  4546
