CCSDS_OMM_VERS = 2.0
CREATION_DATE  = 
ORIGINATOR     = 

OBJECT_NAME    = STARLINK-35671
OBJECT_ID      = 2025-257N
CENTER_NAME    = EARTH
REF_FRAME      = TEME
TIME_SYSTEM    = UTC
MEAN_ELEMENT_THEORY = SGP/SGP4

EPOCH          = 2025-11-30T14:00:01.999872
MEAN_MOTION    = 15.49263945
ECCENTRICITY   = .00011451
INCLINATION    = 53.1594
RA_OF_ASC_NODE = 321.9363
ARG_OF_PERICENTER = 88.8443
MEAN_ANOMALY   = 335.1876

EPHEMERIS_TYPE = 0
CLASSIFICATION_TYPE = U
NORAD_CAT_ID   = 66392
ELEMENT_SET_NO = 999
REV_AT_EPOCH   = 454
BSTAR          = .76663267E-3
MEAN_MOTION_DOT = .42352E-3
MEAN_MOTION_DDOT = 0

CCSDS_OMM_VERS = 2.0
CREATION_DATE  = 
ORIGINATOR     = 

OBJECT_NAME    = STARLINK-35652
OBJECT_ID      = 2025-257P
CENTER_NAME    = EARTH
REF_FRAME      = TEME
TIME_SYSTEM    = UTC
MEAN_ELEMENT_THEORY = SGP/SGP4

EPOCH          = 2025-11-30T14:00:01.999872
MEAN_MOTION    = 15.49260523
ECCENTRICITY   = .00016472
INCLINATION    = 53.1594
RA_OF_ASC_NODE = 321.9399
ARG_OF_PERICENTER = 87.6097
MEAN_ANOMALY   = 334.4898

EPHEMERIS_TYPE = 0
CLASSIFICATION_TYPE = U
NORAD_CAT_ID   = 66393
ELEMENT_SET_NO = 999
REV_AT_EPOCH   = 454
BSTAR          = .11096572E-2
MEAN_MOTION_DOT = .6165E-3
MEAN_MOTION_DDOT = 0

CCSDS_OMM_VERS = 2.0
CREATION_DATE  = 
ORIGINATOR     = 

OBJECT_NAME    = STARLINK-35672
OBJECT_ID      = 2025-257Q
CENTER_NAME    = EARTH
REF_FRAME      = TEME
TIME_SYSTEM    = UTC
MEAN_ELEMENT_THEORY = SGP/SGP4

EPOCH          = 2025-11-30T14:00:01.999872
MEAN_MOTION    = 15.49260713
ECCENTRICITY   = .00015497
INCLINATION    = 53.1594
RA_OF_ASC_NODE = 321.9313
ARG_OF_PERICENTER = 87.8270
MEAN_ANOMALY   = 338.1244

EPHEMERIS_TYPE = 0
CLASSIFICATION_TYPE = U
NORAD_CAT_ID   = 66394
ELEMENT_SET_NO = 999
REV_AT_EPOCH   = 454
BSTAR          = .83779296E-3
MEAN_MOTION_DOT = .46344E-3
MEAN_MOTION_DDOT = 0

CCSDS_OMM_VERS = 2.0
CREATION_DATE  = 
ORIGINATOR     = 

OBJECT_NAME    = STARLINK-35681
OBJECT_ID      = 2025-257R
CENTER_NAME    = EARTH
REF_FRAME      = TEME
TIME_SYSTEM    = UTC
MEAN_ELEMENT_THEORY = SGP/SGP4

EPOCH          = 2025-11-30T14:00:01.999872
MEAN_MOTION    = 15.49266060
ECCENTRICITY   = .00015754
INCLINATION    = 53.1594
RA_OF_ASC_NODE = 321.9282
ARG_OF_PERICENTER = 86.9427
MEAN_ANOMALY   = 340.9199

EPHEMERIS_TYPE = 0
CLASSIFICATION_TYPE = U
NORAD_CAT_ID   = 66395
ELEMENT_SET_NO = 999
REV_AT_EPOCH   = 438
BSTAR          = .70119933E-3
MEAN_MOTION_DOT = .38684E-3
MEAN_MOTION_DDOT = 0

CCSDS_OMM_VERS = 2.0
CREATION_DATE  = 
ORIGINATOR     = 

OBJECT_NAME    = STARLINK-35669
OBJECT_ID      = 2025-257S
CENTER_NAME    = EARTH
REF_FRAME      = TEME
TIME_SYSTEM    = UTC
MEAN_ELEMENT_THEORY = SGP/SGP4

EPOCH          = 2025-11-30T14:00:01.999872
MEAN_MOTION    = 15.49260630
ECCENTRICITY   = .00014828
INCLINATION    = 53.1595
RA_OF_ASC_NODE = 321.9234
ARG_OF_PERICENTER = 87.3764
MEAN_ANOMALY   = 342.4003

EPHEMERIS_TYPE = 0
CLASSIFICATION_TYPE = U
NORAD_CAT_ID   = 66396
ELEMENT_SET_NO = 999
REV_AT_EPOCH   = 454
BSTAR          = .96147314E-3
MEAN_MOTION_DOT = .533E-3
MEAN_MOTION_DDOT = 0

CCSDS_OMM_VERS = 2.0
CREATION_DATE  = 
ORIGINATOR     = 

OBJECT_NAME    = STARLINK-35510
OBJECT_ID      = 2025-257T
CENTER_NAME    = EARTH
REF_FRAME      = TEME
TIME_SYSTEM    = UTC
MEAN_ELEMENT_THEORY = SGP/SGP4

EPOCH          = 2025-11-30T14:00:01.999872
MEAN_MOTION    = 15.49327805
ECCENTRICITY   = .00008833
INCLINATION    = 53.1594
RA_OF_ASC_NODE = 321.9202
ARG_OF_PERICENTER = 84.9401
MEAN_ANOMALY   = 346.7363

EPHEMERIS_TYPE = 0
CLASSIFICATION_TYPE = U
NORAD_CAT_ID   = 66397
ELEMENT_SET_NO = 999
REV_AT_EPOCH   = 454
BSTAR          = -.12338336E-2
MEAN_MOTION_DOT = -.68514E-3
MEAN_MOTION_DDOT = 0

CCSDS_OMM_VERS = 2.0
CREATION_DATE  = 
ORIGINATOR     = 

OBJECT_NAME    = STARLINK-35642
OBJECT_ID      = 2025-257U
CENTER_NAME    = EARTH
REF_FRAME      = TEME
TIME_SYSTEM    = UTC
MEAN_ELEMENT_THEORY = SGP/SGP4

EPOCH          = 2025-11-30T14:00:01.999872
MEAN_MOTION    = 15.49265822
ECCENTRICITY   = .00014881
INCLINATION    = 53.1594
RA_OF_ASC_NODE = 321.9154
ARG_OF_PERICENTER = 84.5697
MEAN_ANOMALY   = 349.0455

EPHEMERIS_TYPE = 0
CLASSIFICATION_TYPE = U
NORAD_CAT_ID   = 66398
ELEMENT_SET_NO = 999
REV_AT_EPOCH   = 454
BSTAR          = .71572636E-3
MEAN_MOTION_DOT = .39499E-3
MEAN_MOTION_DDOT = 0

CCSDS_OMM_VERS = 2.0
CREATION_DATE  = 
ORIGINATOR     = 

OBJECT_NAME    = STARLINK-35657
OBJECT_ID      = 2025-257V
CENTER_NAME    = EARTH
REF_FRAME      = TEME
TIME_SYSTEM    = UTC
MEAN_ELEMENT_THEORY = SGP/SGP4

EPOCH          = 2025-11-30T14:00:01.999872
MEAN_MOTION    = 15.49256936
ECCENTRICITY   = .00016301
INCLINATION    = 53.1595
RA_OF_ASC_NODE = 321.9116
ARG_OF_PERICENTER = 85.1279
MEAN_ANOMALY   = 350.4031

EPHEMERIS_TYPE = 0
CLASSIFICATION_TYPE = U
NORAD_CAT_ID   = 66399
ELEMENT_SET_NO = 999
REV_AT_EPOCH   = 454
BSTAR          = .12145449E-2
MEAN_MOTION_DOT = .67562E-3
MEAN_MOTION_DDOT = 0

CCSDS_OMM_VERS = 2.0
CREATION_DATE  = 
ORIGINATOR     = 

OBJECT_NAME    = STARLINK-35667
OBJECT_ID      = 2025-257W
CENTER_NAME    = EARTH
REF_FRAME      = TEME
TIME_SYSTEM    = UTC
MEAN_ELEMENT_THEORY = SGP/SGP4

EPOCH          = 2025-11-30T14:00:01.999872
MEAN_MOTION    = 15.49242949
ECCENTRICITY   = .00015441
INCLINATION    = 53.1595
RA_OF_ASC_NODE = 321.9033
ARG_OF_PERICENTER = 80.6758
MEAN_ANOMALY   = 358.6692

EPHEMERIS_TYPE = 0
CLASSIFICATION_TYPE = U
NORAD_CAT_ID   = 66400
ELEMENT_SET_NO = 999
REV_AT_EPOCH   = 454
BSTAR          = .72198158E-3
MEAN_MOTION_DOT = .39817E-3
MEAN_MOTION_DDOT = 0

CCSDS_OMM_VERS = 2.0
CREATION_DATE  = 
ORIGINATOR     = 

OBJECT_NAME    = STARLINK-35668
OBJECT_ID      = 2025-257X
CENTER_NAME    = EARTH
REF_FRAME      = TEME
TIME_SYSTEM    = UTC
MEAN_ELEMENT_THEORY = SGP/SGP4

EPOCH          = 2025-11-30T14:00:01.999872
MEAN_MOTION    = 15.49254881
ECCENTRICITY   = .00015619
INCLINATION    = 53.1594
RA_OF_ASC_NODE = 321.8994
ARG_OF_PERICENTER = 85.3579
MEAN_ANOMALY   = 355.9255

EPHEMERIS_TYPE = 0
CLASSIFICATION_TYPE = U
NORAD_CAT_ID   = 66401
ELEMENT_SET_NO = 999
REV_AT_EPOCH   = 454
BSTAR          = .1224085E-2
MEAN_MOTION_DOT = .68096E-3
MEAN_MOTION_DDOT = 0

CCSDS_OMM_VERS = 2.0
CREATION_DATE  = 
ORIGINATOR     = 

OBJECT_NAME    = STARLINK-35644
OBJECT_ID      = 2025-257Y
CENTER_NAME    = EARTH
REF_FRAME      = TEME
TIME_SYSTEM    = UTC
MEAN_ELEMENT_THEORY = SGP/SGP4

EPOCH          = 2025-11-30T14:00:01.999872
MEAN_MOTION    = 15.49254842
ECCENTRICITY   = .00015873
INCLINATION    = 53.1595
RA_OF_ASC_NODE = 321.9072
ARG_OF_PERICENTER = 86.1305
MEAN_ANOMALY   = 351.3179

EPHEMERIS_TYPE = 0
CLASSIFICATION_TYPE = U
NORAD_CAT_ID   = 66402
ELEMENT_SET_NO = 999
REV_AT_EPOCH   = 454
BSTAR          = .13350689E-2
MEAN_MOTION_DOT = .74371E-3
MEAN_MOTION_DDOT = 0

CCSDS_OMM_VERS = 2.0
CREATION_DATE  = 
ORIGINATOR     = 

OBJECT_NAME    = STARLINK-35602
OBJECT_ID      = 2025-257Z
CENTER_NAME    = EARTH
REF_FRAME      = TEME
TIME_SYSTEM    = UTC
MEAN_ELEMENT_THEORY = SGP/SGP4

EPOCH          = 2025-11-30T14:00:01.999872
MEAN_MOTION    = 15.49259234
ECCENTRICITY   = .00016604
INCLINATION    = 53.1594
RA_OF_ASC_NODE = 321.8954
ARG_OF_PERICENTER = 85.1703
MEAN_ANOMALY   = 358.0259

EPHEMERIS_TYPE = 0
CLASSIFICATION_TYPE = U
NORAD_CAT_ID   = 66403
ELEMENT_SET_NO = 999
REV_AT_EPOCH   = 454
BSTAR          = .114888E-2
MEAN_MOTION_DOT = .6386E-3
MEAN_MOTION_DDOT = 0

